name,source,collection_date,satellite_number,classification,launch_year,launch_number,launch_piece,epoch_year,epoch_day,inclination_deg,right_ascension_deg,eccentricity,argument_of_perigee_deg,mean_anomaly_deg,mean_motion,orbital_period_minutes,approximate_altitude_km,mean_motion_derivative,mean_motion_second_derivative,drag_term,element_set_number,revolution_number,line1,line2,category
STARLINK-11492 [DTC],celestrak_active,2025-07-29T17:08:40.712765,62224,U,2024,231,G,2025,210.18092053,53.157,123.3358,8.83e-05,86.9492,273.1626,15.6977803,91.73271459277589,0,0.00158531,0.0,0.012849,999,3830,1 62224U 24231G   25210.18092053  .00158531  00000+0  12849-2 0  9994,2 62224  53.1570 123.3358 0000883  86.9492 273.1626 15.69778030 38308,important
STARLINK-11471 [DTC],celestrak_active,2025-07-29T17:08:40.712771,62225,U,2024,231,H,2025,210.46002367,53.1567,121.5068,8.89e-05,80.0386,280.0732,15.69788641,91.73209452469213,0,0.0023391,0.0,0.018755,999,3835,1 62225U 24231H   25210.46002367  .00233910  00000+0  18755-2 0  9992,2 62225  53.1567 121.5068 0000889  80.0386 280.0732 15.69788641 38355,important
STARLINK-11475 [DTC],celestrak_active,2025-07-29T17:08:40.712776,62226,U,2024,231,J,2025,210.08290899,53.1559,123.4094,0.0001846,148.2301,211.8829,15.69748498,91.73444037912371,0,0.00133767,0.0,0.010895,999,3829,1 62226U 24231J   25210.08290899  .00133767  00000+0  10895-2 0  9996,2 62226  53.1559 123.4094 0001846 148.2301 211.8829 15.69748498 38293,important
STARLINK-11469 [DTC],celestrak_active,2025-07-29T17:08:40.712781,62227,U,2024,231,K,2025,210.47473837,53.1571,121.5903,7.93e-05,72.7139,287.3966,15.69761989,91.73365198614195,0,0.00163739,0.0,0.01327,999,3835,1 62227U 24231K   25210.47473837  .00163739  00000+0  13270-2 0  9997,2 62227  53.1571 121.5903 0000793  72.7139 287.3966 15.69761989 38353,important
STARLINK-11476 [DTC],celestrak_active,2025-07-29T17:08:40.712787,62228,U,2024,231,L,2025,210.13186808,53.1568,122.9975,0.0001512,31.1604,328.9504,15.69769291,91.73322527431198,0,0.00294689,0.0,0.023461,999,3831,1 62228U 24231L   25210.13186808  .00294689  00000+0  23461-2 0  9992,2 62228  53.1568 122.9975 0001512  31.1604 328.9504 15.69769291 38310,important
STARLINK-11485 [DTC],celestrak_active,2025-07-29T17:08:40.712793,62229,U,2024,231,M,2025,210.46983434,53.156,121.5568,9.33e-05,58.1654,301.9454,15.69803225,91.73124230267777,0,0.00245702,0.0,0.019658000000000002,999,3835,1 62229U 24231M   25210.46983434  .00245702  00000+0  19658-2 0  9994,2 62229  53.1560 121.5568 0000933  58.1654 301.9454 15.69803225 38351,important
STARLINK-11481 [DTC],celestrak_active,2025-07-29T17:08:40.712798,62230,U,2024,231,N,2025,210.19073186,53.1569,123.3848,0.0001259,93.6529,266.4633,15.69786574,91.73221531196508,0,0.00273486,0.0,0.021817000000000003,999,3830,1 62230U 24231N   25210.19073186  .00273486  00000+0  21817-2 0  9990,2 62230  53.1569 123.3848 0001259  93.6529 266.4633 15.69786574 38306,important
STARLINK-32650,celestrak_active,2025-07-29T17:08:40.712805,62231,U,2024,231,P,2025,210.23358145,53.1594,177.7465,0.0001534,84.7963,275.3213,15.30211457,94.10464112085131,0,0.00026296,0.0,0.0089649,999,3752,1 62231U 24231P   25210.23358145  .00026296  00000+0  89649-3 0  9990,2 62231  53.1594 177.7465 0001534  84.7963 275.3213 15.30211457 37529,important
STARLINK-32636,celestrak_active,2025-07-29T17:08:40.712811,62232,U,2024,231,Q,2025,210.19347996,53.1576,177.5005,0.0001281,95.0495,265.0651,15.30211666,94.10462826781246,0,0.00021598,0.0,0.0073896,999,3755,1 62232U 24231Q   25210.19347996  .00021598  00000+0  73896-3 0  9995,2 62232  53.1576 177.5005 0001281  95.0495 265.0651 15.30211666 37559,important
STARLINK-32643,celestrak_active,2025-07-29T17:08:40.712816,62233,U,2024,231,R,2025,210.13055667,53.1573,170.7157,0.0001109,68.5008,291.6115,15.3961996,93.52957466204842,0,-9.861e-05,0.0,-0.0023686,999,3763,1 62233U 24231R   25210.13055667 -.00009861  00000+0 -23686-3 0  9994,2 62233  53.1573 170.7157 0001109  68.5008 291.6115 15.39619960 37631,important
STARLINK-32652,celestrak_active,2025-07-29T17:08:40.712822,62234,U,2024,231,S,2025,210.15138008,53.1568,177.9432,9.63e-05,122.1757,237.9337,15.30210897,94.10467555963301,0,0.00022433,0.0,0.0076697,999,3753,1 62234U 24231S   25210.15138008  .00022433  00000+0  76697-3 0  9996,2 62234  53.1568 177.9432 0000963 122.1757 237.9337 15.30210897 37531,important
STARLINK-32631,celestrak_active,2025-07-29T17:08:40.712827,62235,U,2024,231,T,2025,210.26934919,53.1576,170.1614,0.0001183,75.3376,284.776,15.39642522,93.5282040748937,0,0.00037509,0.0,0.009424,999,3765,1 62235U 24231T   25210.26934919  .00037509  00000+0  94240-3 0  9998,2 62235  53.1576 170.1614 0001183  75.3376 284.7760 15.39642522 37655,important
STARLINK-32641,celestrak_active,2025-07-29T17:08:40.712832,62236,U,2024,231,U,2025,210.30175423,53.1564,169.6501,0.0001472,118.8002,241.3151,15.39637604,93.52850282812396,0,0.00018816,0.0,0.0047894,999,3766,1 62236U 24231U   25210.30175423  .00018816  00000+0  47894-3 0  9994,2 62236  53.1564 169.6501 0001472 118.8002 241.3151 15.39637604 37660,important
STARLINK-32632,celestrak_active,2025-07-29T17:08:40.712958,62262,U,2024,231,V,2025,210.29150883,53.1584,177.3956,0.0001297,87.8403,272.2746,15.3020911,94.10478545641386,0,0.00020224,0.0,0.0069288,999,3756,1 62262U 24231V   25210.29150883  .00020224  00000+0  69288-3 0  9991,2 62262  53.1584 177.3956 0001297  87.8403 272.2746 15.30209110 37566,important
STARLINK-11496 [DTC],celestrak_active,2025-07-29T17:08:40.712964,62267,U,2024,237,A,2025,210.6092188,42.9996,321.6137,0.0001365,256.996,103.0755,15.70914846,91.6663308432442,0,0.00209979,0.0,0.015939000000000002,999,3796,1 62267U 24237A   25210.60921880  .00209979  00000+0  15939-2 0  9999,2 62267  42.9996 321.6137 0001365 256.9960 103.0755 15.70914846 37960,important
STARLINK-11501 [DTC],celestrak_active,2025-07-29T17:08:40.712969,62268,U,2024,237,B,2025,209.62361719,42.9994,327.1052,0.0001589,267.257,92.8116,15.70889365,91.66781773966622,0,0.00176286,0.0,0.013456,999,3776,1 62268U 24237B   25209.62361719  .00176286  00000+0  13456-2 0  9995,2 62268  42.9994 327.1052 0001589 267.2570  92.8116 15.70889365 37767,important
STARLINK-11491 [DTC],celestrak_active,2025-07-29T17:08:40.712974,62269,U,2024,237,C,2025,209.61830892,43.0008,327.063,0.0001689,263.278,96.7895,15.70895167,91.66747917049261,0,0.00208665,0.0,0.015855,999,3780,1 62269U 24237C   25209.61830892  .00208665  00000+0  15855-2 0  9990,2 62269  43.0008 327.0630 0001689 263.2780  96.7895 15.70895167 37806,important
STARLINK-11479 [DTC],celestrak_active,2025-07-29T17:08:40.712980,62270,U,2024,237,D,2025,210.5879818,43.0036,321.4422,0.0001492,251.1729,108.8977,15.70947775,91.66440940406183,0,0.00209436,0.0,0.015877,999,3796,1 62270U 24237D   25210.58798180  .00209436  00000+0  15877-2 0  9994,2 62270  43.0036 321.4422 0001492 251.1729 108.8977 15.70947775 37963,important
STARLINK-11489 [DTC],celestrak_active,2025-07-29T17:08:40.712985,62271,U,2024,237,E,2025,210.3072354,42.9974,323.6575,0.0007406,290.6036,69.4037,15.70996666,91.6615567152324,0,0.00251406,0.0,0.018896,999,3791,1 62271U 24237E   25210.30723540  .00251406  00000+0  18896-2 0  9991,2 62271  42.9974 323.6575 0007406 290.6036  69.4037 15.70996666 37913,important
STARLINK-11494 [DTC],celestrak_active,2025-07-29T17:08:40.712992,62272,U,2024,237,F,2025,210.60390876,42.9975,321.5695,6.56e-05,218.9504,141.1316,15.70894257,91.66753227235206,0,0.00121197,0.0,0.0093218,999,3791,1 62272U 24237F   25210.60390876  .00121197  00000+0  93218-3 0  9992,2 62272  42.9975 321.5695 0000656 218.9504 141.1316 15.70894257 37919,important
STARLINK-11333 [DTC],celestrak_active,2025-07-29T17:08:40.712999,62273,U,2024,237,G,2025,210.61452844,43.0011,321.6546,0.0001529,277.8631,82.2063,15.70837263,91.67085820525254,0,0.0015984,0.0,0.012255,999,3796,1 62273U 24237G   25210.61452844  .00159840  00000+0  12255-2 0  9995,2 62273  43.0011 321.6546 0001529 277.8631  82.2063 15.70837263 37967,important
STARLINK-11504 [DTC],celestrak_active,2025-07-29T17:08:40.713004,62274,U,2024,237,H,2025,210.34426721,42.9987,323.0592,0.0001839,262.9443,97.1215,15.70909624,91.66663555942414,0,0.00295113,0.0,0.022162,999,3787,1 62274U 24237H   25210.34426721  .00295113  00000+0  22162-2 0  9993,2 62274  42.9987 323.0592 0001839 262.9443  97.1215 15.70909624 37870,important
STARLINK-11495 [DTC],celestrak_active,2025-07-29T17:08:40.713010,62275,U,2024,237,J,2025,210.43970776,42.9947,322.9307,6.98e-05,186.4014,173.6844,15.70955453,91.66396139687355,0,0.00198167,0.0,0.01504,999,3788,1 62275U 24237J   25210.43970776  .00198167  00000+0  15040-2 0  9996,2 62275  42.9947 322.9307 0000698 186.4014 173.6844 15.70955453 37885,important
STARLINK-11498 [DTC],celestrak_active,2025-07-29T17:08:40.713015,62276,U,2024,237,K,2025,210.58267193,42.9999,321.3963,0.0002364,282.7114,77.349,15.70877462,91.66851233365013,0,0.00179545,0.0,0.013705,999,3796,1 62276U 24237K   25210.58267193  .00179545  00000+0  13705-2 0  9990,2 62276  42.9999 321.3963 0002364 282.7114  77.3490 15.70877462 37966,important
STARLINK-11484 [DTC],celestrak_active,2025-07-29T17:08:40.713021,62277,U,2024,237,L,2025,210.0210469,42.9996,324.9308,0.0001351,287.629,72.443,15.70900235,91.66718343510847,0,0.00197666,0.0,0.015038000000000001,999,3787,1 62277U 24237L   25210.02104690  .00197666  00000+0  15038-2 0  9997,2 62277  42.9996 324.9308 0001351 287.6290  72.4430 15.70900235 37875,important
STARLINK-11487 [DTC],celestrak_active,2025-07-29T17:08:40.713027,62278,U,2024,237,M,2025,210.42909154,42.9996,322.8453,0.0006074,292.1618,67.8605,15.71022497,91.66004960144119,0,0.00238121,0.0,0.017916,999,3793,1 62278U 24237M   25210.42909154  .00238121  00000+0  17916-2 0  9999,2 62278  42.9996 322.8453 0006074 292.1618  67.8605 15.71022497 37931,important
